STARLINK-31435          
1 59004U 24036G   26085.45504196  .00001541  00000+0  64146-4 0  9993
2 59004  53.1624   0.0016 0000967  70.9214 289.1891 15.30191180117908
STARLINK-11136 [DTC]    
1 60407U 24141K   26085.19593432  .00002330  00000+0  24098-4 0  9990
2 60407  53.1587   5.0150 0001400  65.5616 294.5548 15.69699227 94289
STARLINK-4265           
1 53011U 22076AB  26085.19512235  .00001200  00000+0  93446-4 0  9998
2 53011  53.2196  10.0236 0001384  93.1782 266.9369 15.08839176205473
STARLINK-34336          
1 64462U 25130AA  26085.06692840  .00030566  00000+0  10391-2 0  9994
2 64462  53.1628  15.0114 0001935  90.1742 269.9481 15.30223367 43178
STARLINK-4256           
1 52994U 22076J   26085.19420778  .00002233  00000+0  15838-3 0  9992
2 52994  53.2192  20.0288 0001395  86.5527 273.5624 15.08837980205335
STARLINK-3782           
1 52273U 22041N   26085.21499065  .00002200  00000+0  15629-3 0  9994
2 52273  53.2192  25.3180 0001679  95.0017 265.1167 15.08840426216990
STARLINK-1283           
1 45389U 20019AF  26085.13024826  .00049268  00000+0  53368-3 0  9994
2 45389  53.0439  30.0042 0000975  88.4980 271.6146 15.63085505333095
STARLINK-11146 [DTC]    
1 60729U 24152K   26085.09057642 -.00000369  00000+0  18183-5 0  9996
2 60729  53.1604  35.2006 0001268  40.5999 319.5113 15.69708355 91545
STARLINK-34520          
1 64486U 25133Q   26085.26824498  .00037732  00000+0  12787-2 0  9994
2 64486  53.1618  40.0036 0000943  96.5630 263.5478 15.30223704 43720
STARLINK-3930           
1 52568U 22051AM  26085.18638697  .00001136  00000+0  89471-4 0  9998
2 52568  53.2179  45.0612 0001496  90.5882 269.5281 15.08835500214077
STARLINK-4535           
1 53392U 22097E   26085.19880590  .00001765  00000+0  12896-3 0  9990
2 53392  53.2178  50.0071 0001490  85.4353 274.6809 15.08838568201163
STARLINK-3926           
1 52543U 22051L   26085.18546622  .00001479  00000+0  11096-3 0  9994
2 52543  53.2176  55.0663 0001362  84.7975 275.3173 15.08852407213938
STARLINK-3938           
1 52566U 22051AK  26085.09852965  .00001030  00000+0  82821-4 0  9997
2 52566  53.2177  60.4568 0001457  81.1110 279.0047 15.08834701213854
STARLINK-33736          
1 63450U 25069T   26085.31459885  .00013281  00000+0  45961-3 0  9996
2 63450  53.1602  65.0021 0001334  59.2920 300.8212 15.30208480 55905
STARLINK-3993           
1 52692U 22053AN  26085.12334318  .00000943  00000+0  77342-4 0  9994
2 52692  53.2180  70.0766 0001226  85.3549 274.7583 15.08840532213633
STARLINK-2467           
1 48126U 21027AL  26085.35617015  .00006092  00000+0  22323-3 0  9993
2 48126  53.1579  75.0268 0001374  82.3261 277.7895 15.29363786275243
STARLINK-31434          
1 59215U 24046Q   26084.68728717  .00000333  00000+0  23369-4 0  9999
2 59215  53.1595  80.6884 0001041  66.9505 293.1606 15.30194158115497
STARLINK-2171           
1 47754U 21017AJ  26085.50002314  .00044095  00000+0  29806-3 0  9993
2 47754  53.0430  85.1086 0000701 123.1479  94.7988 15.74628414  5908
STARLINK-34800          
1 65361U 25190L   26085.43369574  .00016434  00000+0  56571-3 0  9994
2 65361  53.1588  90.0589 0001172  91.4157 268.6978 15.30202845 31855
STARLINK-1470           
1 45772U 20038AU  26085.41090537  .00040295  00000+0  14047-2 0  9995
2 45772  53.0473  96.6207 0003152  47.7733 312.3533 15.29269354319639
STARLINK-2682           
1 48440U 21040N   26085.51164263  .00011829  00000+0  41068-3 0  9998
2 48440  53.1585 100.0047 0001392  76.4405 283.6751 15.30214452269255
STARLINK-1784           
1 46687U 20073T   26085.31558896  .00076834  00000+0  74686-3 0  9990
2 46687  53.0430 105.2515 0006404   8.9476 351.1651 15.65622266300506
STARLINK-37004          
1 68089U 26042W   26085.49782644 -.00667783  00000+0 -38619-2 0  9997
2 68089  53.1573 110.3682 0001657 168.1904 191.9157 15.79638704  4744
STARLINK-2706           
1 48481U 21040BF  26085.52013457 -.00023998  00000+0 -80064-3 0  9993
2 48481  53.1601 115.3363 0001480  68.5037 291.6122 15.30202438269049
STARLINK-11111 [DTC]    
1 59764U 24091M   26085.53379785 -.00000420  00000+0  13918-5 0  9998
2 59764  53.1589 122.8759 0001090  75.1395 284.9744 15.69713206108162
STARLINK-1502           
1 45764U 20038AL  26085.53226984  .00060633  00000+0  10797-2 0  9992
2 45764  53.0500 125.4132 0005663  42.4231 317.7213 15.49557210319247
STARLINK-1046           
1 44751U 19074AQ  26085.49918411  .00029377  00000+0  61140-3 0  9992
2 44751  53.0523 130.8608 0002523 266.8424  93.2294 15.45399612351015
STARLINK-34411          
1 65414U 25192L   26085.30446757  .01184381  74491-3  21209-2 0  9996
2 65414  53.1318 135.1278 0012087   1.4810 358.6255 16.01124221 32203
STARLINK-1627           
1 46168U 20057BD  26085.58334490  .00122064  00000+0  73861-3 0  9998
2 46168  53.0391 140.7209 0006127  51.2147 295.2966 15.76720657  5962
STARLINK-31027          
1 58720U 24002R   26085.46026084  .00115370  00000+0  18497-2 0  9998
2 58720  53.1502 146.2732 0013051   8.3012 351.8212 15.52142847124669
STARLINK-3982           
1 52614U 22052S   26085.44136049  .00058680  00000+0  10597-2 0  9991
2 52614  53.2103 150.1376 0004095  22.0096 338.1089 15.49182848214148
STARLINK-35014          
1 65429U 25192AB  26085.36812009  .00020930  00000+0  71634-3 0  9992
2 65429  53.1579 155.1689 0001111  95.4870 264.6257 15.30220565 31937
STARLINK-1585           
1 46117U 20057A   26085.58334490  .00456659  95341-4  11269-2 0  9992
2 46117  53.0361 161.1055 0007074   6.2446 152.2173 15.95417196  6047
STARLINK-34638          
1 64762U 25147H   26085.42811834  .00018680  00000+0  64148-3 0  9994
2 64762  53.1592 165.0622 0002293 134.6158 225.5030 15.30186397 41317
STARLINK-1742           
1 46376U 20062BD  26085.58334490  .00338438  54253-4  10268-2 0  9994
2 46376  53.0228 170.1356 0003068 307.1947  46.3356 15.91591512  6045
STARLINK-1623           
1 46129U 20057N   26085.41863688  .00076269  00000+0  10760-2 0  9996
2 46129  53.0516 175.1744 0003877 267.1426  92.9141 15.55931737309527
STARLINK-32812          
1 63038U 25034K   26085.53041116  .00013984  00000+0  48333-3 0  9994
2 63038  53.1585 180.0059 0001175  90.6181 269.4955 15.30202334 61663
STARLINK-11163 [DTC]    
1 60047U 24112K   26084.99019065  .00004100  00000+0  38729-4 0  9993
2 60047  53.1626 185.7303 0003121  66.5353 293.5993 15.69693257103540
STARLINK-4670           
1 53744U 22107AW  26085.01660653  .00000425  00000+0  44743-4 0  9999
2 53744  53.2182 190.4489 0001001  87.1689 272.9417 15.08846330197065
STARLINK-32816          
1 63050U 25034X   26085.01374046  .00025145  00000+0  85797-3 0  9999
2 63050  53.1495 195.2541 0004504  80.4138 279.7371 15.30203419 61402
STARLINK-2083           
1 47676U 21012BJ  26085.50002314  .00938834  00000+0  10685-1 0  9997
2 47676  53.0478 200.1609 0000099 156.4644 354.2095 15.59484944  5900
STARLINK-2346           
1 47887U 21021AD  26085.03365608  .00000401  00000+0  25670-4 0  9990
2 47887  53.1571 205.0867 0001192  86.6282 273.4855 15.30194917278563
STARLINK-30430          
1 57849U 23141K   26084.60348220  .00000612  00000+0  32789-4 0  9990
2 57849  53.1620 210.2663 0000365  20.7711 339.3304 15.30192573142765
STARLINK-5050           
1 53890U 22119E   26085.08608628  .00000286  00000+0  36058-4 0  9990
2 53890  53.2247 215.2963 0001103  94.7171 265.3947 15.08841640194650
STARLINK-11342 [DTC]    
1 61580U 24187G   26084.09144353  .00002599  00000+0  26300-4 0  9990
2 61580  53.1591 220.0101 0001091 113.8430 246.2702 15.69712563 83226
STARLINK-3357           
1 51150U 22005AY  26085.08882429  .00000028  00000+0  19861-4 0  9991
2 51150  53.2201 225.1153 0001641  92.4077 267.7103 15.08834504231221
STARLINK-4737           
1 53834U 22114S   26085.10124587  .00001954  00000+0  14084-3 0  9990
2 53834  53.2166 230.1143 0001349  87.2267 272.8879 15.08829368195313
STARLINK-2153           
1 48009U 21024AJ  26084.67407052  .00000099  00000+0  15465-4 0  9993
2 48009  53.1590 235.1524 0001524  89.1837 270.9339 15.30192447277348
STARLINK-1653           
1 46352U 20062AD  26085.49104669  .00129341  00000+0  13749-2 0  9995
2 46352  53.0423 240.4441 0009173 314.9549  45.0720 15.63098899307706
STARLINK-1655           
1 47623U 21012D   26085.17192993  .00098181  00000+0  87139-3 0  9997
2 47623  53.0401 245.0224 0006664 336.1193  23.9512 15.67772529284056
STARLINK-11108 [DTC]    
1 59712U 24088E   26084.18212178 -.00001621  00000+0 -85312-5 0  9991
2 59712  53.1563 250.0339 0000816 107.6342 252.4766 15.69705743108704
STARLINK-34889          
1 65761U 25216AD  26085.49322431 -.00003487  00000+0 -10581-3 0  9991
2 65761  53.1564 255.0196 0000828  78.9320 281.1773 15.30160633 29161
STARLINK-34435          
1 64602U 25137J   26084.89012920  .00028271  00000+0  96236-3 0  9995
2 64602  53.1597 260.0997 0000652  95.7745 264.3330 15.30221616 43211
STARLINK-2588           
1 48398U 21038AX  26084.90047799  .00020753  00000+0  10819-2 0  9998
2 48398  53.0732 265.1126 0004831 161.2678 198.8494 15.15948707271026
STARLINK-2609           
1 48373U 21038W   26084.92695753  .00004294  00000+0  15711-3 0  9991
2 48373  53.1565 270.0730 0002754  89.1553 270.9763 15.30185812269746
STARLINK-35101          
1 65700U 25212AA  26083.81341345  .00019404  00000+0  66535-3 0  9993
2 65700  53.1573 275.0950 0001313  81.3387 278.7762 15.30209059 29510
STARLINK-1226           
1 45229U 20012BD  26085.58334490  .01524265  00000+0  42315-1 0  9994
2 45229  53.1590 280.0588 0001337  85.5118 217.5158 15.33562112  5902
STARLINK-3593           
1 51896U 22022AW  26085.24897409  .00000163  00000+0  28339-4 0  9999
2 51896  53.2187 285.0054 0001426  88.5649 271.5507 15.08836992225797
STARLINK-11414 [DTC]    
1 61948U 24209K   26085.13833472  .00211315  00000+0  16964-2 0  9997
2 61948  53.1575 290.0035 0000839  39.8306 320.2773 15.69831650 79301
STARLINK-31123          
1 58775U 24011L   26085.54806858  .00006500  00000+0  23132-3 0  9999
2 58775  53.1583 295.2080 0002292  78.9589 281.1669 15.30214366122858
